RANGE-A                 
1 43773U 18099R   26068.70590171  .00005536  00000+0  32166-3 0  9992
2 43773  97.4107 114.1927 0009674 340.4473  19.6386 15.12458640397457
STARLINK-4005           
1 52686U 22053AG  26068.43553663  .00000085  00000+0  23464-4 0  9991
2 52686  53.2178 145.5399 0001456 100.1869 259.9287 15.08834601211082
